NORAD_CAT_ID,OBJECT_NAME,OBJECT_TYPE,EPOCH,MEAN_MOTION,ECCENTRICITY,INCLINATION,RA_OF_ASC_NODE,ARG_OF_PERICENTER,MEAN_ANOMALY,BSTAR,MEAN_MOTION_DOT,MEAN_MOTION_DDOT,TLE_LINE0,TLE_LINE1,TLE_LINE2,SEMIMAJOR_AXIS,PERIOD,APOGEE,PERIGEE,DECAYED
49176.0,STARLINK-3069,PAYLOAD,2022-02-02 22:00:00,15.69714184,0.000395,69.9999,88.2171,295.0736,185.8531,0.00051165,0.00061231,0.0,0 STARLINK-3069,1 49176U 21082AY  22033.91667824  .00061231  00000-0  51165-3 0  9997,2 49176  69.9999  88.2171 0003950 295.0736 185.8531 15.69714184  3691,6737.852,91.736,362.378,357.055,0.0
49176.0,STARLINK-3069,PAYLOAD,2022-02-03 06:00:00,15.69782491,0.0003961,70.0003,87.28,293.9608,270.0693,3.9956e-06,2.65e-06,0.0,0 STARLINK-3069,1 49176U 21082AY  22034.25001157  .00000265  00000-0  39956-5 0  9992,2 49176  70.0003  87.2800 0003961 293.9608 270.0693 15.69782491 22418,6737.656,91.732,362.19,356.853,0.0
49176.0,STARLINK-3069,PAYLOAD,2022-02-03 14:00:01,15.69792157,0.0004236,70.0002,86.3431,297.7676,349.4296,-0.00032133,-0.00038472,0.0,0 STARLINK-3069,1 49176U 21082AY  22034.58334491 -.00038472  00000-0 -32133-3 0  9999,2 49176  70.0002  86.3431 0004236 297.7676 349.4296 15.69792157  3699,6737.629,91.732,362.348,356.64,0.0
49176.0,STARLINK-3069,PAYLOAD,2022-02-03 22:00:01,15.69744617,0.0004084,69.9998,85.4057,293.4939,76.9645,0.00056089,0.0006728,0.0,0 STARLINK-3069,1 49176U 21082AY  22034.91668981  .00067280  00000-0  56089-3 0  9993,2 49176  69.9998  85.4057 0004084 293.4939  76.9645 15.69744617  3698,6737.765,91.735,362.381,356.87800000000016,0.0
49176.0,STARLINK-3069,PAYLOAD,2022-02-04 14:00:01,15.69774609,0.0004162,69.9994,83.5317,298.576,238.1997,-0.00024832,-0.00029788,0.0,0 STARLINK-3069,1 49176U 21082AY  22035.58335648 -.00029788  00000-0 -24832-3 0  9992,2 49176  69.9994  83.5317 0004162 298.5760 238.1997 15.69774609 22616,6737.679,91.733,362.348,356.74,0.0
49176.0,STARLINK-3069,PAYLOAD,2022-02-04 22:00:00,15.69699348,0.000403,69.9995,82.5944,294.8395,325.0273,-1.8964e-05,-2.471e-05,0.0,0 STARLINK-3069,1 49176U 21082AY  22035.91667824 -.00002471  00000-0 -18964-4 0  9993,2 49176  69.9995  82.5944 0004030 294.8395 325.0273 15.69699348 22674,6737.894,91.737,362.475,357.0440000000001,0.0
49176.0,STARLINK-3069,PAYLOAD,2022-02-05 06:00:00,15.69740565,0.0003995,70.0,81.6574,294.4455,48.4993,3.268e-05,3.689e-05,0.0,0 STARLINK-3069,1 49176U 21082AY  22036.25001157  .00003689  00000-0  32680-4 0  9993,2 49176  70.0000  81.6574 0003995 294.4455  48.4993 15.69740565 22724,6737.776,91.735,362.333,356.95,0.0
49176.0,STARLINK-3069,PAYLOAD,2022-02-05 14:00:01,15.69741919,0.000412,69.9998,80.7204,298.9216,127.1466,0.00056498,0.00067769,0.0,0 STARLINK-3069,1 49176U 21082AY  22036.58334491  .00067769  00000-0  56498-3 0  9990,2 49176  69.9998  80.7204 0004120 298.9216 127.1466 15.69741919  3680,6737.772,91.735,362.413,356.861,0.0
49176.0,STARLINK-3069,PAYLOAD,2022-02-06 06:00:00,15.6973021,0.0003867,70.0,78.8466,295.8277,296.4957,-0.0011952999999999,-0.00140451,0.0,0 STARLINK-3069,1 49176U 21082AY  22037.25001157 -.00140451  00000-0 -11953-2 0  9993,2 49176  70.0000  78.8466 0003867 295.8277 296.4957 15.69730210 22885,6737.806,91.736,362.276,357.065,0.0
49176.0,STARLINK-3069,PAYLOAD,2022-02-06 14:00:01,15.69621941,0.0003934,69.9995,77.9096,301.0939,14.3397,0.00054705,0.00065265,0.0,0 STARLINK-3069,1 49176U 21082AY  22037.58335648  .00065265  00000-0  54705-3 0  9994,2 49176  69.9995  77.9096 0003934 301.0939  14.3397 15.69621941 22935,6738.116,91.742,362.632,357.33,0.0
49176.0,STARLINK-3069,PAYLOAD,2022-02-06 22:00:00,15.69589917,0.0003805,69.9996,76.9727,294.8463,103.5274,0.0017315999999999,0.00210393,0.0,0 STARLINK-3069,1 49176U 21082AY  22037.91667824  .00210393  00000-0  17316-2 0  9995,2 49176  69.9996  76.9727 0003805 294.8463 103.5274 15.69589917  3686,6738.206999999999,91.744,362.636,357.509,0.0
49176.0,STARLINK-3069,PAYLOAD,2022-02-07 14:00:01,15.69762945,0.000412,70.0,75.0986,298.4415,266.0963,0.00044268,0.00053005,0.0,0 STARLINK-3069,1 49176U 21082AY  22038.58334491  .00053005  00000-0  44268-3 0  9992,2 49176  70.0000  75.0986 0004120 298.4415 266.0963 15.69762945  3673,6737.712,91.734,362.353,356.801,0.0
49176.0,STARLINK-3069,PAYLOAD,2022-02-07 16:00:00,15.69797064,0.0004088,69.9999,74.8645,298.1254,17.192999999999998,-6.5859e-05,-8.084e-05,0.0,0 STARLINK-3069,1 49176U 21082AY  22038.66667824 -.00008084  00000-0 -65859-4 0  9999,2 49176  69.9999  74.8645 0004088 298.1254  17.1930 15.69797064 23106,6737.615,91.732,362.234,356.725,0.0
49176.0,STARLINK-3069,PAYLOAD,2022-02-07 22:00:00,15.69782191,0.0004006,70.0001,74.1619,293.4929,354.2179,4.7546e-05,5.475e-05,0.0,0 STARLINK-3069,1 49176U 21082AY  22038.91667824  .00005475  00000-0  47546-4 0  9999,2 49176  70.0001  74.1619 0004006 293.4929 354.2179 15.69782191  3703,6737.656999999997,91.732,362.221,356.8230000000001,0.0
49176.0,STARLINK-3069,PAYLOAD,2022-02-08 14:00:01,15.69802038,0.0004242,69.9998,72.288,298.2028,155.8369,-0.00039628,-0.00047366,0.0,0 STARLINK-3069,1 49176U 21082AY  22039.58334491 -.00047366  00000-0 -39628-3 0  9992,2 49176  69.9998  72.2880 0004242 298.2028 155.8369 15.69802038  3696,6737.6,91.731,362.323,356.607,0.0
49176.0,STARLINK-3069,PAYLOAD,2022-02-08 22:00:01,15.69704876,0.0003997,69.9999,71.3509,293.2405,244.0531,0.00079699,0.00095858,0.0,0 STARLINK-3069,1 49176U 21082AY  22039.91668981  .00095858  00000-0  79699-3 0  9992,2 49176  69.9999  71.3509 0003997 293.2405 244.0531 15.69704876 23296,6737.878000000002,91.737,362.437,357.05,0.0
49176.0,STARLINK-3069,PAYLOAD,2022-02-09 14:00:01,15.69771767,0.0004278,70.0001,69.477,297.0951,46.4219,-0.00015399,-0.00018576,0.0,0 STARLINK-3069,1 49176U 21082AY  22040.58334491 -.00018576  00000-0 -15399-3 0  9994,2 49176  70.0001  69.4770 0004278 297.0951  46.4219 15.69771767 23405,6737.687,91.733,362.434,356.67,0.0
49176.0,STARLINK-3069,PAYLOAD,2022-02-10 14:00:01,15.69745521,0.0004522,69.9997,66.6663,294.6623,298.2863,0.00025881,0.00030799,0.0,0 STARLINK-3069,1 49176U 21082AY  22041.58335648  .00030799  00000-0  25881-3 0  9996,2 49176  69.9997  66.6663 0004522 294.6623 298.2863 15.69745521 23565,6737.762,91.735,362.674,356.58,0.0
49176.0,STARLINK-3069,PAYLOAD,2022-02-10 22:00:00,15.6975791,0.0004307,69.9998,65.7294,289.9108,26.121,0.00023597,0.00028066,0.0,0 STARLINK-3069,1 49176U 21082AY  22041.91667824  .00028066  00000-0  23597-3 0  9993,2 49176  69.9998  65.7294 0004307 289.9108  26.1210 15.69757910  3671,6737.727,91.734,362.494,356.69,0.0
49176.0,STARLINK-3069,PAYLOAD,2022-02-11 14:00:01,15.69787093,0.0004074,69.9998,63.855,296.9513,185.4233,-0.00019215,-0.00023127,0.0,0 STARLINK-3069,1 49176U 21082AY  22042.58334491 -.00023127  00000-0 -19215-3 0  9995,2 49176  69.9998  63.8550 0004074 296.9513 185.4233 15.69787093  3695,6737.643,91.732,362.253,356.76300000000015,0.0
49176.0,STARLINK-3069,PAYLOAD,2022-02-11 22:00:01,15.69752602,0.0003903,69.9999,62.9183,291.2843,274.3058,8.8362e-05,0.00010351,0.0,0 STARLINK-3069,1 49176U 21082AY  22042.91668981  .00010351  00000-0  88362-4 0  9999,2 49176  69.9999  62.9183 0003903 291.2843 274.3058 15.69752602 23774,6737.7419999999975,91.734,362.237,356.977,0.0
49176.0,STARLINK-3069,PAYLOAD,2022-02-12 12:25:17,15.69723122,0.000345,69.9999,61.2272,295.6792,64.4047,-0.0001118,-0.00013523,0.0,0 STARLINK-3069,1 49176U 21082AY  22043.51756397 -.00013523  00000-0 -11180-3 0  9994,2 49176  69.9999  61.2272 0003450 295.6792  64.4047 15.69723122 23864,6737.826,91.736,362.016,357.367,0.0
49176.0,STARLINK-3069,PAYLOAD,2022-02-12 22:00:00,15.69687278,0.0003768,69.9994,60.1075,290.1225,164.7121,0.00083178,0.00100024,0.0,0 STARLINK-3069,1 49176U 21082AY  22043.91667824  .00100024  00000-0  83178-3 0  9991,2 49176  69.9994  60.1075 0003768 290.1225 164.7121 15.69687278 23926,6737.929,91.738,362.333,357.255,0.0
49176.0,STARLINK-3069,PAYLOAD,2022-02-13 06:00:00,15.6974484,0.0004008999999999,69.9996,59.1703,292.4427,245.4953,-0.00043903,-0.00052295,0.0,0 STARLINK-3069,1 49176U 21082AY  22044.25001157 -.00052295  00000-0 -43903-3 0  9990,2 49176  69.9996  59.1703 0004009 292.4427 245.4953 15.69744840 23976,6737.764,91.735,362.33,356.92800000000005,0.0
49176.0,STARLINK-3069,PAYLOAD,2022-02-13 14:00:01,15.69739289,0.0004051,69.9992,58.2332,294.6088,326.4293,0.00013514,0.00015946,0.0,0 STARLINK-3069,1 49176U 21082AY  22044.58334491  .00015946  00000-0  13514-3 0  9991,2 49176  69.9992  58.2332 0004051 294.6088 326.4293 15.69739289 24029,6737.78,91.735,362.374,356.915,0.0
49176.0,STARLINK-3069,PAYLOAD,2022-02-14 06:00:00,15.69743949,0.000391,69.9998,56.3595,292.4272,134.8633,-0.00028284,-0.00033838,0.0,0 STARLINK-3069,1 49176U 21082AY  22045.25001157 -.00033838  00000-0 -28284-3 0  9998,2 49176  69.9998  56.3595 0003910 292.4272 134.8633 15.69743949 24138,6737.767,91.735,362.266,356.997,0.0
49176.0,STARLINK-3069,PAYLOAD,2022-02-14 14:00:01,15.69729962,0.0004063,69.9991,55.4224,293.4211,216.9821,-0.00035813,-0.00042721,0.0,0 STARLINK-3069,1 49176U 21082AY  22045.58334491 -.00042721  00000-0 -35813-3 0  9991,2 49176  69.9991  55.4224 0004063 293.4211 216.9821 15.69729962  3692,6737.807,91.736,362.409,356.934,0.0
49176.0,STARLINK-3069,PAYLOAD,2022-02-14 22:00:00,15.6967309,0.0004006,69.9991,54.4853,287.0583,306.4308,0.00086844,0.00104441,0.0,0 STARLINK-3069,1 49176U 21082AY  22045.91667824  .00104441  00000-0  86844-3 0  9993,2 49176  69.9991  54.4853 0004006 287.0583 306.4308 15.69673090  3681,6737.969,91.739,362.534,357.135,0.0
49176.0,STARLINK-3069,PAYLOAD,2022-02-15 06:00:00,15.69733084,0.0004068,69.9993,53.5482,290.4803,26.0897,0.00013098,0.00015444,0.0,0 STARLINK-3069,1 49176U 21082AY  22046.25001157  .00015444  00000-0  13098-3 0  9997,2 49176  69.9993  53.5482 0004068 290.4803  26.0897 15.69733084 24289,6737.7980000000025,91.735,362.404,356.922,0.0
